id,name,email,role,department,phone,status,position,employee_id,created_at,updated_at,company_name,avatar,preferred_language,country,city,must_change_password
bdd1db77-6025-4f4c-b48d-7857730d8bde,nppdels,yipibe1882@dwakm.com,basic,,,active,,,2025-10-28T12:13:52.822,2025-10-28T12:13:52.83,,,,,,false
a0398f7e-d61d-498d-afd2-08e3734ec786,HJHADKJHDAKJ DAKJH DKJAHDKJAHDK HADKJDHKH ,letapek261@keevle.com,basic,,,active,,,2025-10-28T12:13:52.83,2025-10-28T12:13:52.83,,,,,,false
6155130b-44d4-4f71-8fb0-b74c93e7d2a6,JATAFA,jatafa1868@filipx.com,basic,,,active,,,2025-10-28T12:13:52.83,2025-10-28T12:13:52.83,,,,,,false
ec18b01d-5fce-4376-b815-d9487aa578f3,asndaskdjhaskdj,aaaaaaaaaaaaaaaalia@wouldcart.cpm,basic,,,active,,,2025-10-28T12:13:52.83,2025-10-28T12:13:52.83,,,,,,false
e9c78fe3-312c-4fb4-b566-9b24bdaa17ae,BCKA,tanif48177@dropeso.com,basic,,,active,,,2025-10-28T12:13:52.83,2025-10-28T12:13:52.83,,,,,,false
85ddf8c7-2b64-4c90-ad41-99416b2ace3b,CONTAXT OERISN NAME,yolavo5767@hh7f.com,basic,,,active,,,2025-10-28T12:13:52.83,2025-10-28T12:13:52.83,,,,,,false
f815c3e9-4bec-492c-9de7-bfbf25275f11,Contact Person Name D,bajaro4237@keevle.com,basic,,,active,,,2025-10-28T12:13:52.83,2025-10-28T12:13:52.83,,,,,,false
8431a089-7242-42ec-b301-b5b336372404,OLA ANAJAJ,sejafox599@haotuwu.com,basic,,,active,,,2025-10-28T12:13:52.83,2025-10-28T12:13:52.83,,,,,,false
e0e24089-f4b2-4edc-b3ba-fa115fbf2849,YE AKBHHE BOLTI HSI,wexol22835@filipx.com,basic,,,active,,,2025-10-28T12:13:52.83,2025-10-28T12:13:52.83,,,,,,false
395ca751-b1dc-42fd-956c-34deedee47e7,ACKJ KJKJA,libod66417@filipx.com,basic,,,active,,,2025-10-28T12:13:52.83,2025-10-28T12:13:52.83,,,,,,false
9d5ab910-a301-4f5d-9235-a056f6be65b2,,test-inspect-1761633739733@example.com,basic,,,active,,,2025-10-28T12:13:52.83,2025-10-28T12:13:52.83,,,,,,false
7413a042-8c5d-46a8-bf00-7a8c1c409971,,test-complete-fix-1761633701666@example.com,basic,,,active,,,2025-10-28T12:13:52.83,2025-10-28T12:13:52.83,,,,,,false
b6c5accc-f5a7-4d80-9456-4c7920f79305,,metadata-test2-1761633646879@example.com,basic,,,active,,,2025-10-28T12:13:52.83,2025-10-28T12:13:52.83,,,,,,false
bb92602f-19f7-4e39-b4c4-3806e70b1b85,Updated Name from user_metadata,metadata-test-1761633646579@example.com,basic,,,active,,,2025-10-28T12:13:52.83,2025-10-28T12:13:52.83,,,,,,false
72414dee-2a9d-496b-ae79-e5ce6af56fa1,,test-new-func-1761633640556@example.com,basic,,,active,,,2025-10-28T12:13:52.83,2025-10-28T12:13:52.83,,,,,,false
1e86127d-eefd-490f-b38b-7d809a7013e4,,test-simple-1761633592575@example.com,basic,,,active,,,2025-10-28T12:13:52.83,2025-10-28T12:13:52.83,,,,,,false
0e680277-7dfc-46b4-ae98-6b9e37cbabe7,Test Function User,test-func-1761633539346@example.com,basic,,,active,,,2025-10-28T12:13:52.83,2025-10-28T12:13:52.83,,,,,,false
b65b55dc-010e-4cf3-bd1a-59a407efa2d4,,metadata-test2-1761633404151@example.com,basic,,,active,,,2025-10-28T12:13:52.83,2025-10-28T12:13:52.83,,,,,,false
b706917f-a178-4d6d-bd3c-2d2276760bd9,Updated Name from user_metadata,metadata-test-1761633403821@example.com,basic,,,active,,,2025-10-28T12:13:52.83,2025-10-28T12:13:52.83,,,,,,false
fd082811-699a-4279-b93f-0d0a0cb62458,Test User,test-function-1761633364936@example.com,basic,,,active,,,2025-10-28T12:13:52.83,2025-10-28T12:13:52.83,,,,,,false
3e0a95a1-3872-42cf-9ee1-4e052822d44f,,metadata-test2-1761633307721@example.com,basic,,,active,,,2025-10-28T12:13:52.83,2025-10-28T12:13:52.83,,,,,,false
4339c821-ab60-48a3-8f9d-d4150189045b,Updated Name from user_metadata,metadata-test-1761633307394@example.com,basic,,,active,,,2025-10-28T12:13:52.83,2025-10-28T12:13:52.83,,,,,,false
3bc58774-6f25-486d-8197-b0b2714159d7,Get Or Create Test User,test-1761632790312@example.com,basic,,,active,,,2025-10-28T12:13:52.83,2025-10-28T12:13:52.83,,,,,,false
c264c876-d411-4d71-938b-405cc0bbdcf1,New Function Test User,test-1761632756480@example.com,basic,,,active,,,2025-10-28T12:13:52.83,2025-10-28T12:13:52.83,,,,,,false
ae118cbb-2fb5-44e4-baee-f3661334b4fe,Final Test User,test-1761632709747@example.com,basic,,,active,,,2025-10-28T12:13:52.83,2025-10-28T12:13:52.83,,,,,,false
1959aea7-1717-4089-b760-8f920d65f95d,REST API Test User,test-1761632663856@example.com,basic,,,active,,,2025-10-28T12:13:52.83,2025-10-28T12:13:52.83,,,,,,false
46a8dba3-4b0e-4614-b360-5808d154b183,Debug Test User,test-1761632619274@example.com,basic,,,active,,,2025-10-28T12:13:52.83,2025-10-28T12:13:52.83,,,,,,false
0e887314-ef1e-4037-a7fd-ae328d649e80,Test User V2,test-1761632578769@example.com,basic,,,active,,,2025-10-28T12:13:52.83,2025-10-28T12:13:52.83,,,,,,false
821ae957-c023-4608-b8af-ccc454cd7930,Test User,test-1761632538797@example.com,basic,,,active,,,2025-10-28T12:13:52.83,2025-10-28T12:13:52.83,,,,,,false
6f2be90e-6177-41d0-a9f4-1378aab2280c,Debug Trigger User,debug-trigger-1761632477292@example.com,basic,,,active,,,2025-10-28T12:13:52.83,2025-10-28T12:13:52.83,,,,,,false
d5abaf53-de75-4847-b15b-48cb4fd395f5,Minimal Final User,minimal-final-1761632433177@example.com,basic,,,active,,,2025-10-28T12:13:52.83,2025-10-28T12:13:52.83,,,,,,false
cc8ad0e2-892c-43a2-a5c4-75104ed1e1eb,Final Test User,final-trigger-1761632428894@example.com,basic,,,active,,,2025-10-28T12:13:52.83,2025-10-28T12:13:52.83,,,,,,false
1da1f84e-5b3e-4b46-8edd-f454e8ff73d2,Debug Test User,debug-metadata-1761632317916@example.com,basic,,,active,,,2025-10-28T12:13:52.83,2025-10-28T12:13:52.83,,,,,,false
0d5b7b1c-4572-4b8a-a37a-e34a8e3188a9,,no-meta-1761632278340@example.com,basic,,,active,,,2025-10-28T12:13:52.83,2025-10-28T12:13:52.83,,,,,,false
0d7b7e89-6d2a-49cd-ba51-1bb7dcd4ee7a,Minimal Working User,minimal-working-1761632274905@example.com,basic,,,active,,,2025-10-28T12:13:52.83,2025-10-28T12:13:52.83,,,,,,false
4675c6d4-cd73-4ebf-836b-940a8656bafc,Working Trigger User,working-trigger-1761632271332@example.com,basic,,,active,,,2025-10-28T12:13:52.83,2025-10-28T12:13:52.83,,,,,,false
4fd76143-fcfb-481f-a46d-d6bd084f8aaa,Exec SQL Test,exec-sql-test-1761632199681@example.com,basic,,,active,,,2025-10-28T12:13:52.83,2025-10-28T12:13:52.83,,,,,,false
96cae424-239c-4b71-b39c-a129fd1954b6,Test User,test-metadata-1761632099264@example.com,basic,,,active,,,2025-10-28T12:13:52.83,2025-10-28T12:13:52.83,,,,,,false
c3d81706-41c4-4bf7-8d69-6fd0590cf79f,Minimal User,minimal-1761632052877@example.com,basic,,,active,,,2025-10-28T12:13:52.83,2025-10-28T12:13:52.83,,,,,,false
85f102a6-d1cf-4242-bd91-37cd4f6cca1a,Simple Trigger User,simple-trigger-1761632049592@example.com,basic,,,active,,,2025-10-28T12:13:52.83,2025-10-28T12:13:52.83,,,,,,false
19bfaf5f-d37e-4b87-9f8f-96a3d063be83,Debug Function User,debug-function-1761631980935@example.com,basic,,,active,,,2025-10-28T12:13:52.83,2025-10-28T12:13:52.83,,,,,,false
8ea4d9f3-59d5-4d51-b203-d77bac224e7c,Signup Test User,signup-test-1761631938262@example.com,basic,,,active,,,2025-10-28T12:13:52.83,2025-10-28T12:13:52.83,,,,,,false
e3d6cced-a15a-4fa7-9894-41eef0d9fabd,Direct Test User,direct-test-1761631935416@example.com,basic,,,active,,,2025-10-28T12:13:52.83,2025-10-28T12:13:52.83,,,,,,false
2a9c2033-210d-4faa-acf0-fd66830b35f7,Debug Test User,debug-test-1761631869601@example.com,basic,,,active,,,2025-10-28T12:13:52.83,2025-10-28T12:13:52.83,,,,,,false
847bf259-4f22-4ace-b854-a462fcda59aa,Bob Johnson,test-rls-solution-2-1761631809941@example.com,basic,,,active,,,2025-10-28T12:13:52.83,2025-10-28T12:13:52.83,,,,,,false
212f63de-9e8b-40b8-8e9c-4200b094a86d,Test User,test-rls-1761631720739@example.com,basic,,,active,,,2025-10-28T12:13:52.83,2025-10-28T12:13:52.83,,,,,,false
0372ebbe-7b38-4e69-8bfc-053c9f1c2758,John Doe,test-update-1761631673864@example.com,basic,,,active,,,2025-10-28T12:13:52.83,2025-10-28T12:13:52.83,,,,,,false
916217f7-3e67-4331-8c19-88068d3e3186,John Doe,test-sql-1761631641232@example.com,basic,,,active,,,2025-10-28T12:13:52.83,2025-10-28T12:13:52.83,,,,,,false
47452471-64c3-4ed4-b79e-a86d357c709a,John Doe,test-sql-1761631621419@example.com,basic,,,active,,,2025-10-28T12:13:52.83,2025-10-28T12:13:52.83,,,,,,false
dcd595fb-7826-448b-b173-1b8166b6eedd,John Doe,test-sql-1761631591178@example.com,basic,,,active,,,2025-10-28T12:13:52.83,2025-10-28T12:13:52.83,,,,,,false
30d559ba-f874-44a0-a5f6-5bd4b5cb29b6,John Doe,test-debug-1761631558038@example.com,basic,,,active,,,2025-10-28T12:13:52.83,2025-10-28T12:13:52.83,,,,,,false
11f7e6bb-3f1a-4233-9c3a-9d88815225c5,John Doe,test-trigger-1761631486157@example.com,basic,,,active,,,2025-10-28T12:13:52.83,2025-10-28T12:13:52.83,,,,,,false
42d7cafe-bc86-4ee6-9d87-4d6f59dfaeba,John Doe,test-trigger-1761631401873@example.com,basic,,,active,,,2025-10-28T12:13:52.83,2025-10-28T12:13:52.83,,,,,,false
606c160d-0ea7-4317-b92f-90bf831171c5,John Doe,test-metadata-1761630721253@example.com,basic,,,active,,,2025-10-28T12:13:52.83,2025-10-28T12:13:52.83,,,,,,false
a827d43b-6ee4-45ff-829f-2e2ea592a34d,John Doe,test-metadata-1761630611641@example.com,basic,,,active,,,2025-10-28T12:13:52.83,2025-10-28T12:13:52.83,,,,,,false
c6ad4528-ffd7-402c-9cfd-559cec8ad6b1,Auth Permissions User,auth-permissions-1761630554625@example.com,basic,,,active,,,2025-10-28T12:13:52.83,2025-10-28T12:13:52.83,,,,,,false
a6116a1f-be7e-4931-af1d-a23d35ebea26,Direct Function User,direct-function-1761630516376@example.com,basic,,,active,,,2025-10-28T12:13:52.83,2025-10-28T12:13:52.83,,,,,,false
51838c28-9752-47d9-aec8-af75f95daf73,Debug Permissions User,debug-permissions-1761630479338@example.com,basic,,,active,,,2025-10-28T12:13:52.83,2025-10-28T12:13:52.83,,,,,,false
a7762406-a467-413c-92a6-923101f475e4,Raw Data Test User,raw-data-test2-1761630439311@example.com,basic,,,active,,,2025-10-28T12:13:52.83,2025-10-28T12:13:52.83,,,,,,false
1fc43cff-390f-4e98-9c41-e10a20465e1b,Raw Data Test User,raw-data-test-1761630437410@example.com,basic,,,active,,,2025-10-28T12:13:52.83,2025-10-28T12:13:52.83,,,,,,false
8d66bb17-d405-476e-a6c1-1d549c6f7004,Debug Trigger User,debug-trigger-1761630400000@example.com,basic,,,active,,,2025-10-28T12:13:52.83,2025-10-28T12:13:52.83,,,,,,false
ec7d70d0-bb9e-427f-823f-5881aab16fbf,John Doe,test-metadata-1761630360403@example.com,basic,,,active,,,2025-10-28T12:13:52.83,2025-10-28T12:13:52.83,,,,,,false
d96fbff9-a21c-40f4-a330-4b1a6ba23d0a,Schema Test User,schema-test-1761630311549@example.com,basic,,,active,,,2025-10-28T12:13:52.83,2025-10-28T12:13:52.83,,,,,,false
67a7d04e-34e5-4e26-be1d-b60c4ef03d3e,Debug User,debug-metadata-1761630278950@example.com,basic,,,active,,,2025-10-28T12:13:52.83,2025-10-28T12:13:52.83,,,,,,false
7c0a4af1-3035-4257-97a0-86e8184826d8,John Doe,test-metadata-1761630229693@example.com,basic,,,active,,,2025-10-28T12:13:52.83,2025-10-28T12:13:52.83,,,,,,false
ff409c54-907d-4667-938e-b7e318a940b3,John Doe,test-metadata-1761630074216@example.com,basic,,,active,,,2025-10-28T12:13:52.83,2025-10-28T12:13:52.83,,,,,,false
75a4a414-7592-4ae6-bdc1-545ed4a7b03e,COK,vepato4577@dropeso.com,basic,,,active,,,2025-10-28T12:13:52.83,2025-10-28T12:13:52.83,,,,,,false
f89fd02d-dd23-4571-8f77-06664dd19df1,,user@tripoex.com,basic,,,active,,,2025-10-28T12:13:52.83,2025-10-28T12:13:52.83,,,,,,false
69dd673c-3b0e-468d-ab98-6916ce4e60a3,,agent_company@tripoex.com,basic,,,active,,,2025-10-28T12:13:52.83,2025-10-28T12:13:52.83,,,,,,false
9d15b392-c7ea-47d8-a92a-6683cd132895,,staff_sales@tripoex.com,basic,,,active,,,2025-10-28T12:13:52.83,2025-10-28T12:13:52.83,,,,,,false
82d81688-ffbc-41a7-b65e-05138fed192d,Test Agent,test-agent@triplexa.com,basic,,,active,,,2025-10-28T12:13:52.83,2025-10-28T12:13:52.83,,,,,,false
02fc35ea-8332-4f0d-b7fc-f4bd483ca8d7,SGTWS,fadakos605@filipx.com,basic,,,active,,,2025-10-28T12:13:52.83,2025-10-28T12:13:52.83,,,,,,false
93107e53-8cc1-4b55-9762-1a385a33accc,Soni,mahof12890@haotuwu.com,basic,,,active,,,2025-10-28T12:13:52.83,2025-10-28T12:13:52.83,,,,,,false
deb05d9a-e70e-4621-8290-ce1f844e219a,rstrq,hijiseg589@ametitas.com,basic,,,active,,,2025-10-28T12:13:52.83,2025-10-28T12:13:52.83,,,,,,false
a29055a0-47f9-4582-83aa-b6a4c00e4d85,Sabrona LAA,wipolef987@lovleo.com,basic,,,active,,,2025-10-28T12:13:52.83,2025-10-28T12:13:52.83,,,,,,false
3c0b4d25-5dc1-4668-910b-efe2d67a8bcf,livico2586@lovleo.com,livico2586@lovleo.com,basic,,,active,,,2025-10-28T12:13:52.83,2025-10-28T12:13:52.83,,,,,,false
d76d79c5-968d-42fd-a9fc-88f104f7b3d3,Tabmo,wesod93564@haotuwu.com,basic,,,active,,,2025-10-28T12:13:52.83,2025-10-28T12:13:52.83,,,,,,false
77b0e187-dfa0-4a57-b189-ac510d4b216c,Dharng,borec21591@dwakm.com,basic,,,active,,,2025-10-28T12:13:52.83,2025-10-28T12:13:52.83,,,,,,false
fa0c6902-adbf-4140-90f8-987f94e1af8e,Bokya,getota3024@filipx.com,basic,,,active,,,2025-10-28T12:13:52.83,2025-10-28T12:13:52.83,,,,,,false
82a40347-04bd-4702-9c2e-56473510a8bc,SINGH,babodi2183@lovleo.com,basic,,,active,,,2025-10-28T12:13:52.83,2025-10-28T12:13:52.83,,,,,,false
33517f4c-e24a-4698-b778-306a9f198008,MONI,kofeyok734@dropeso.com,basic,,,active,,,2025-10-28T12:13:52.83,2025-10-28T12:13:52.83,,,,,,false
4a890d50-1f7c-4a3f-88f7-12d5512557b7,asds,gimevo8198@ametitas.com,basic,,,active,,,2025-10-28T12:13:52.83,2025-10-28T12:13:52.83,,,,,,false
4900dec6-a5e2-4c13-888d-ece596669393,JAY HO,yoxog32477@filipx.com,basic,,,active,,,2025-10-28T12:13:52.83,2025-10-28T12:13:52.83,,,,,,false
dc77bebd-5e63-451f-b3ae-eb5e99234e50,MAHAKAL SHIV,cagiri8843@lovleo.com,basic,,,active,,,2025-10-28T12:13:52.83,2025-10-28T12:13:52.83,,,,,,false
d643ba26-4d4a-41d1-94de-6488de92323c,Super max,tonote3987@ametitas.com,basic,,,active,,,2025-10-28T12:13:52.83,2025-10-28T12:13:52.83,,,,,,false
f485afca-9d4e-4f8c-b75f-52fdecfe0eea,SHIV SATHA HAI,jeresi8861@hh7f.com,basic,,,active,,,2025-10-28T12:13:52.83,2025-10-28T12:13:52.83,,,,,,false
91b01299-cdbe-488b-b4b7-b57011548f44,POLO,sihavim762@dropeso.com,basic,,,active,,,2025-10-28T12:13:52.83,2025-10-28T12:13:52.83,,,,,,false
23ff7a06-0392-40f8-a60c-7c2271138516,,akshay@wouldcart.com,basic,,,active,,,2025-10-28T12:13:52.83,2025-10-28T12:13:52.83,,,,,,false
a0ceb997-c250-4f7d-9d42-db1b8105b0d4,Twin KSAK,rajaci7747@ametitas.com,basic,,,active,,,2025-10-28T12:13:52.83,2025-10-28T12:13:52.83,,,,,,false
518bb457-94f8-43d9-9dcc-4c7238a716aa,,test@example.com,basic,,,active,,,2025-10-28T12:13:52.83,2025-10-28T12:13:52.83,,,,,,false
30f3b949-81e5-4c2e-9165-50425416b248,TEMO COMS,rofiso6713@hh7f.com,basic,,,active,,,2025-10-28T12:13:52.83,2025-10-28T12:13:52.83,,,,,,false
653d233e-213b-487a-948f-886201dc2846,SFSF,wibawi9973@keevle.com,basic,,,active,,,2025-10-28T12:13:52.83,2025-10-28T12:13:52.83,,,,,,false
2d58ac1f-8d85-4841-a935-9c3ca913e640,SONAL SINGDE,yapadip658@lovleo.com,basic,,,active,,,2025-10-28T12:13:52.83,2025-10-28T12:13:52.83,,,,,,false
46784a8b-1fde-48de-a4e3-e892ce09e0c8,person name,bojawob766@hh7f.com,basic,,,active,,,2025-10-28T12:13:52.83,2025-10-28T12:13:52.83,,,,,,false
6e8e52f3-425d-45c4-82b5-fac0c79c2888,Temp user,pakes13727@dropeso.com,basic,,,active,,,2025-10-28T12:13:52.83,2025-10-28T12:13:52.83,,,,,,false
8362c72b-d622-486c-99e3-75c8080d1b14,sada,wouldcart@gmail.com,basic,,,active,,,2025-10-28T12:13:52.83,2025-10-28T12:13:52.83,,,,,,false
2ed7c43a-9064-49cd-b6a0-cd664d3ec6a4,ads,arg4888@gmail.com,basic,,,active,,,2025-10-28T12:13:52.83,2025-10-28T12:13:52.83,,,,,,false
3f86c104-3dd2-4554-be3a-4a26b478f205,AGNET BABA,tadapi7521@lovleo.com,basic,,,active,,,2025-10-28T12:13:52.83,2025-10-28T12:13:52.83,,,,,,false
aae9b17d-0895-49c4-899e-00e7145df97b,,asdasd@wouldcart.com,basic,,,active,,,2025-10-28T12:13:52.83,2025-10-28T12:13:52.83,,,,,,false
8b92cfd6-1577-40ac-9b17-c4d32064a2d1,,testasdasdas@gmai.com,basic,,,active,,,2025-10-28T12:13:52.83,2025-10-28T12:13:52.83,,,,,,false
c70ce594-da24-436d-b207-aece4b16425c,asdasdasdasda,gehawas768@hh7f.com,basic,,,active,,,2025-10-28T12:13:52.83,2025-10-28T12:13:52.83,,,,,,false
6d755120-b65f-41ac-b401-be4ebed6f6f5,Jane Smith,test-admin-1761574592016@example.com,basic,,,active,,,2025-10-28T12:13:52.83,2025-10-28T12:13:52.83,,,,,,false
24f532b9-bb0a-4d61-9a6d-d9402691f336,AJDBBAMA,popogas514@lovleo.com,basic,,,active,,,2025-10-28T12:13:52.83,2025-10-28T12:13:52.83,,,,,,false
3838f19a-f305-4d1b-9fa4-ca0f292b75a2,asdasd,xapoko7525@keevle.com,basic,,,active,,,2025-10-28T12:13:52.83,2025-10-28T12:13:52.83,,,,,,false
8a029662-902b-444c-9dc8-21a43e628adb,ASFDF AD,soxakol223@lovleo.com,basic,,,active,,,2025-10-28T12:13:52.83,2025-10-28T12:13:52.83,,,,,,false
71a8013b-20af-4574-88cc-b1981b8abb21,,hola@woulrcart.com,basic,,,active,,,2025-10-28T12:13:52.83,2025-10-28T12:13:52.83,,,,,,false
916fda92-a1b0-4130-b442-198ed2d8060d,asd,wopokaj637@hh7f.com,basic,,,active,,,2025-10-28T12:13:52.83,2025-10-28T12:13:52.83,,,,,,false
08bc4be2-3de5-4797-bb4f-f2c86242164e,,me@wouldcart.com,basic,,,active,,,2025-10-28T12:13:52.83,2025-10-28T12:13:52.83,,,,,,false
b8914880-54ac-4bb9-a638-4f69cd876181,Jane Sales,hr-1761567665453@triplexa.com,basic,,,active,,,2025-10-28T12:13:52.83,2025-10-28T12:13:52.83,,,,,,false
241617a1-5133-4a8d-812b-529748b76f9c,Jane Sales,sales-1761567665453@triplexa.com,basic,,,active,,,2025-10-28T12:13:52.83,2025-10-28T12:13:52.83,,,,,,false
9ab3c28b-2314-4ad5-abb1-64a617610e60,Jane Sales,sales-1761567622957@triplexa.com,basic,,,active,,,2025-10-28T12:13:52.83,2025-10-28T12:13:52.83,,,,,,false
8edbc87d-2195-48bc-a8e6-afd4face3c02,WO BNEL LOCO,wobebol494@lovleo.com,basic,,,active,,,2025-10-28T12:13:52.83,2025-10-28T12:13:52.83,,,,,,false
560458db-5e1c-4ebc-8d5a-55b8925fbac0,BOYO BO,boyoyo4827@haotuwu.com,basic,,,active,,,2025-10-28T12:13:52.83,2025-10-28T12:13:52.83,,,,,,false
94c4e5da-c84b-4780-8137-85f0fb7ea986,YE BOT,yebot34685@hh7f.com,basic,,,active,,,2025-10-28T12:13:52.83,2025-10-28T12:13:52.83,,,,,,false
a2f456ca-4f96-499b-8c6e-86c20f7753ae,TSTETST STAFF,dejekeh243@ametitas.com,basic,,,active,,,2025-10-28T12:13:52.83,2025-10-28T12:13:52.83,,,,,,false
33767167-62ac-4376-a299-f72fa5f09746,Admin Test agent reg POL,xados62630@foxroids.com,basic,,,active,,,2025-10-28T12:13:52.83,2025-10-28T12:13:52.83,,,,,,false
663713b1-654d-4b2c-8809-62cf8263efcb,Admin Created Agent,cofefe3097@nrlord.com,basic,,,active,,,2025-10-28T12:13:52.83,2025-10-28T12:13:52.83,,,,,,false
75189ae4-4e74-4f06-91e4-f5c0cea12814,Ashiahs THis,lijag24595@fixwap.com,basic,,,active,,,2025-10-28T12:13:52.83,2025-10-28T12:13:52.83,,,,,,false
e45a4b11-7f16-4db8-9285-f6188526b55d,LOASO,gotador291@fixwap.com,basic,,,active,,,2025-10-28T12:13:52.83,2025-10-28T12:13:52.83,,,,,,false
4ce4a2e5-8b20-40a1-a2bf-2377b1749517,Hebelib,habelib588@datoinf.com,basic,,,active,,,2025-10-28T12:13:52.83,2025-10-28T12:13:52.83,,,,,,false
39b811b5-b5b7-45a4-860e-abd226c7ca7d,OTM2025,pixol48308@fogdiver.com,basic,,,active,,,2025-10-28T12:13:52.83,2025-10-28T12:13:52.83,,,,,,false
a3433336-b30c-4460-935a-91bc42515615,Staff Sorce Check,vawagix396@elygifts.com,basic,,,active,,,2025-10-28T12:13:52.83,2025-10-28T12:13:52.83,,,,,,false
c6b056ae-736a-4334-859e-3ddfff2bf5e4,OTM,yijav294240@elygifts.com,basic,,,active,,,2025-10-28T12:13:52.83,2025-10-28T12:13:52.83,,,,,,false
ea6ddea0-eea9-466b-94f0-ea3e98bbb5a1,AOKAA,secel99752@nrlord.com,basic,,,active,,,2025-10-28T12:13:52.83,2025-10-28T12:13:52.83,,,,,,false
5756d3ec-bf9e-49dc-8177-3c2289587f04,JAGDAMBA,mokasin700@datoinf.com,basic,,,active,,,2025-10-28T12:13:52.83,2025-10-28T12:13:52.83,,,,,,false
39d07141-cc2f-4982-8054-fb6da4427c21,Peffer,pewefo5018@fogdiver.com,basic,,,active,,,2025-10-28T12:13:52.83,2025-10-28T12:13:52.83,,,,,,false
a793ea7b-8e84-43a7-9feb-cf10b4a4b870,SONI,lecorap376@nrlord.com,basic,,,active,,,2025-10-28T12:13:52.83,2025-10-28T12:13:52.83,,,,,,false
4d0bd8d9-80b1-4c03-9966-5343a694e80f,Branma Pal,nodopo6108@nrlord.com,basic,,,active,,,2025-10-28T12:13:52.83,2025-10-28T12:13:52.83,,,,,,false
6cc7c7e6-244f-420b-8a20-111f803316bc,BOSMOS,tikilar599@datoinf.com,basic,,,active,,,2025-10-28T12:13:52.83,2025-10-28T12:13:52.83,,,,,,false
7780a8c0-d48b-4f43-95bf-0e54ebe93fa9,AMK NAKJNA,wedic10386@memeazon.com,basic,,,active,,,2025-10-28T12:13:52.83,2025-10-28T12:13:52.83,,,,,,false
7df85a5d-4b07-46ec-bcb5-7959ce5b02c7,Here poter,xicaboj729@memeazon.com,basic,,,active,,,2025-10-28T12:13:52.83,2025-10-28T12:13:52.83,,,,,,false
c6f32501-b7c0-4cd4-bf62-fb95682173e5,Besip Josk,besip22452@elygifts.com,basic,,,active,,,2025-10-28T12:13:52.83,2025-10-28T12:13:52.83,,,,,,false
c9a5cd16-4f11-4ea5-9805-9f148c3f5a28,Jenobe Jenin,jenobe4432@foxroids.com,basic,,,active,,,2025-10-28T12:13:52.83,2025-10-28T12:13:52.83,,,,,,false
b31c3b63-442e-46a6-9cd7-a0770875eca1,Contact Person ME,waxek67190@nrlord.com,basic,,,active,,,2025-10-28T12:13:52.83,2025-10-28T12:13:52.83,,,,,,false
de244958-c596-4f94-81cc-8fcb7275f0dd,Test Contact,test.agent.1760959137854@example.com,basic,,,active,,,2025-10-28T12:13:52.83,2025-10-28T12:13:52.83,,,,,,false
4520102d-0b64-49d6-b18e-fd868e54867e,Kiji bihe,kigib13156@datoinf.com,basic,,,active,,,2025-10-28T12:13:52.83,2025-10-28T12:13:52.83,,,,,,false
3806b03f-e999-4648-ac66-bb5462183969,NAXA,naxac21712@fanlvr.com,basic,,,active,,,2025-10-28T12:13:52.83,2025-10-28T12:13:52.83,,,,,,false
5c0e308f-9034-4069-aee3-f57336877485,staft agent test,rodojoy491@lorkex.com,basic,,,active,,,2025-10-28T12:13:52.83,2025-10-28T12:13:52.83,,,,,,false
d9eec707-5459-4fcf-bf1d-3abb28e74220,Rwst,homac78422@gamegta.com,basic,,,active,,,2025-10-28T12:13:52.83,2025-10-28T12:13:52.83,,,,,,false
e35a4e81-9f04-43a7-b27a-25de81bf2828,SAh BAJ,tiwer56678@gta5hx.com,basic,,,active,,,2025-10-28T12:13:52.83,2025-10-28T12:13:52.83,,,,,,false
e5b67797-8f86-423e-bd9c-b0810ab2486c,,test-agent-1760113283303@gmail.com,basic,,,active,,,2025-10-28T12:13:52.83,2025-10-28T12:13:52.83,,,,,,false
b8712215-20f6-4d33-9bc0-c91bd2664732,,test.agent.1760113173028@gmail.com,basic,,,active,,,2025-10-28T12:13:52.83,2025-10-28T12:13:52.83,,,,,,false
8d57da41-fccb-47d1-afe4-29330ac8e356,,cewid90107@capiena.com,basic,,,active,,,2025-10-28T12:13:52.83,2025-10-28T12:13:52.83,,,,,,false
3a6895d9-cf4a-49d7-80ea-da6ee2521315,,pabah73823@fanlvr.com,basic,,,active,,,2025-10-28T12:13:52.83,2025-10-28T12:13:52.83,,,,,,false
8e16d290-1185-4818-be82-538b6f4b8211,,test-agent-1760099964643@example.com,basic,,,active,,,2025-10-28T12:13:52.83,2025-10-28T12:13:52.83,,,,,,false
3480756d-c381-45a7-8f4b-5ce17b1d7165,,agent.signup.test+1760099373848@example.com,basic,,,active,,,2025-10-28T12:13:52.83,2025-10-28T12:13:52.83,,,,,,false
23932599-84bd-4a98-a23b-ef65cecbd84f,,agent.signup.test+1760099288147@example.com,basic,,,active,,,2025-10-28T12:13:52.83,2025-10-28T12:13:52.83,,,,,,false
6099defe-faaa-4ec3-bc33-dd5e939bd1ce,,agent.signup.test+1760099245646@example.com,basic,,,active,,,2025-10-28T12:13:52.83,2025-10-28T12:13:52.83,,,,,,false
a51a4317-8881-413a-8c61-f9a4b73eae5e,Besiji,besigi1411@gta5hx.com,basic,,,active,,,2025-10-28T12:13:52.83,2025-10-28T12:13:52.83,,,,,,false
d9483bb9-6b76-4530-b66a-fbc6df290311,Jibo lo,jilobol352@arqsis.com,basic,,,active,,,2025-10-28T12:13:52.83,2025-10-28T12:13:52.83,,,,,,false
4829a268-d252-4c6c-b23b-65b74a513d08,Nolo,nologa3565@gamegta.com,basic,,,active,,,2025-10-28T12:13:52.83,2025-10-28T12:13:52.83,,,,,,false
6e7e7240-f51b-4a8c-af72-9768d537db35,,test.agent.1760085767612@gmail.com,basic,,,active,,,2025-10-28T12:13:52.83,2025-10-28T12:13:52.83,,,,,,false
3f3cc98e-59be-4e9a-bf08-07afd65a4f86,Pokimon POK,sewij67505@aupvs.com,basic,,,active,,,2025-10-28T12:13:52.83,2025-10-28T12:13:52.83,,,,,,false
67d3b379-6672-403c-b889-0107aa648a81,OLAJS,ciwoh94685@erynka.com,basic,,,active,,,2025-10-28T12:13:52.83,2025-10-28T12:13:52.83,,,,,,false
e0096596-fbe8-4ce0-9df1-4dea470e6700,MOCKA,mofoc33259@aiwanlab.com,basic,,,active,,,2025-10-28T12:13:52.83,2025-10-28T12:13:52.83,,,,,,false
c3a921ad-cb94-462c-b1ea-bad12d5614bb,wotijeh,wotijeh652@aupvs.com,basic,,,active,,,2025-10-28T12:13:52.83,2025-10-28T12:13:52.83,,,,,,false
6df25e49-049f-457a-adc7-bf1d6ff1c755,Tets,vigahi8618@bllibl.com,basic,,,active,,,2025-10-28T12:13:52.83,2025-10-28T12:13:52.83,,,,,,false
7345041b-1a70-4bc3-a453-c5026adf58c1,Sohile Toirs,coceja5540@fintehs.com,basic,,,active,,,2025-10-28T12:13:52.83,2025-10-28T12:13:52.83,,,,,,false
7da7fae8-5318-49b8-a445-6847ab7a4d7a,Omega,megesof109@aupvs.com,basic,,,active,,,2025-10-28T12:13:52.83,2025-10-28T12:13:52.83,,,,,,false
44792b0b-e133-4800-a888-36b95a536508,Raj Taj,rotojo7775@noidos.com,basic,,,active,,,2025-10-28T12:13:52.83,2025-10-28T12:13:52.83,,,,,,false
af9d91bd-2bd4-4b02-bdf0-fec829735406,Soni Travels,fenah49992@bllibl.com,basic,,,active,,,2025-10-28T12:13:52.83,2025-10-28T12:13:52.83,,,,,,false
7cea08cd-c08e-4137-b00e-77428c94d2b6,kajsd,vayesat833@erynka.com,basic,,,active,,,2025-10-28T12:13:52.83,2025-10-28T12:13:52.83,,,,,,false
e916a747-672b-47e4-a21b-26aad208aa4f,asd,dowif88494@noidos.com,basic,,,active,,,2025-10-28T12:13:52.83,2025-10-28T12:13:52.83,,,,,,false
b0b4f3f1-a695-4c45-9073-a7078bd553fa,,user@wouldcart.com,basic,,,active,,,2025-10-28T12:13:52.83,2025-10-28T12:13:52.83,,,,,,false
a64af983-5a6d-435e-9ed8-4ff54ae03697,,ops_staff@wouldcart.com,basic,,,active,,,2025-10-28T12:13:52.83,2025-10-28T12:13:52.83,,,,,,false
abef9282-4c7f-43e0-87b0-ffc1acd3c9ab,,content@wouldcart.com,basic,,,active,,,2025-10-28T12:13:52.83,2025-10-28T12:13:52.83,,,,,,false
7035ba69-8403-48b5-9b9f-1b8991f52b01,,support_agent@wouldcart.com,basic,,,active,,,2025-10-28T12:13:52.83,2025-10-28T12:13:52.83,,,,,,false
2fa84a6e-0122-4a9e-b7ff-eda0771b2d72,,staff_sales@wouldcart.com,basic,,,active,,,2025-10-28T12:13:52.83,2025-10-28T12:13:52.83,,,,,,false
f76e1ed6-701a-450a-a0bd-26733dc75e32,,hrmanager@wouldcart.com,basic,,,active,,,2025-10-28T12:13:52.83,2025-10-28T12:13:52.83,,,,,,false
9bdc1e40-43a6-4260-b19c-a72507965055,,akshay@trip.com,basic,,,active,,,2025-10-28T12:13:52.83,2025-10-28T12:13:52.83,,,,,,false
a85fc277-e67f-493f-b529-369e05f77944,,manager@tripoex.com,basic,,,active,,,2025-10-28T12:13:52.83,2025-10-28T12:13:52.83,,,,,,false
a7d0193e-3551-4e89-8427-831324eb6908,,superadmin@tripoex.com,basic,,,active,,,2025-10-28T12:13:52.83,2025-10-28T12:13:52.83,,,,,,false
6407fe0a-c639-4254-a30a-0963758a309b,Agent User,agent@triplexa.com,basic,,,active,,,2025-10-28T12:13:52.83,2025-10-28T12:13:52.83,,,,,,false
88363e98-e704-4aab-9f6a-068795e454a0,Sales Agent,sales@triplexa.com,basic,,,active,,,2025-10-28T12:13:52.83,2025-10-28T12:13:52.83,,,,,,false
6ce83d19-b787-40b1-874b-9dfc5161c3fc,Manager User,manager@triplexa.com,basic,,,active,,,2025-10-28T12:13:52.83,2025-10-28T12:13:52.83,,,,,,false
be1693ac-a4cb-413c-a8ee-2c5411dcc8ed,Super Admin,admin@triplexa.com,basic,,,active,,,2025-10-28T12:13:52.83,2025-10-28T12:13:52.83,,,,,,false